[
    {
        "Altitude(m)": 572723.4114605156,
        "Argument of Periapsis(deg)": -0.007534386927657468,
        "Eccentricity": 0.0,
        "Inclination(deg)": 97.0,
        "Latitude(deg)": 55.86459494961446,
        "Longitude(deg)": -120.38415920421858,
        "Mean Anomaly(deg)": 123.60814775639591,
        "RAAN(deg)": 150.00198235120618,
        "Satellite Name": "Starlink Shell 3 1892",
        "Satellite Number": 1892,
        "Semi-Major Axis(m)": 6938478.169268562,
        "Time(s)": 190
    },
    {
        "Altitude(m)": 572587.4043421064,
        "Argument of Periapsis(deg)": -0.007930933608060494,
        "Eccentricity": 0.0,
        "Inclination(deg)": 97.0,
        "Latitude(deg)": 55.254414965209534,
        "Longitude(deg)": -120.66260047961245,
        "Mean Anomaly(deg)": 124.23362395410089,
        "RAAN(deg)": 150.00208668548018,
        "Satellite Name": "Starlink Shell 3 1892",
        "Satellite Number": 1892,
        "Semi-Major Axis(m)": 6938478.169268562,
        "Time(s)": 200
    },
    {
        "Altitude(m)": 572450.5484485641,
        "Argument of Periapsis(deg)": -0.008327480288463517,
        "Eccentricity": 0.0,
        "Inclination(deg)": 97.0,
        "Latitude(deg)": 54.643720669555826,
        "Longitude(deg)": -120.93390407580331,
        "Mean Anomaly(deg)": 124.85910015180593,
        "RAAN(deg)": 150.0021910197542,
        "Satellite Name": "Starlink Shell 3 1892",
        "Satellite Number": 1892,
        "Semi-Major Axis(m)": 6938478.169268562,
        "Time(s)": 210
    },
    {
        "Altitude(m)": 572312.9252293243,
        "Argument of Periapsis(deg)": -0.008724026968866542,
        "Eccentricity": 0.0,
        "Inclination(deg)": 97.0,
        "Latitude(deg)": 54.03253433905353,
        "Longitude(deg)": -121.19843346091814,
        "Mean Anomaly(deg)": 125.48457634951099,
        "RAAN(deg)": 150.0022953540282,
        "Satellite Name": "Starlink Shell 3 1892",
        "Satellite Number": 1892,
        "Semi-Major Axis(m)": 6938478.169268562,
        "Time(s)": 220
    },
    {
        "Altitude(m)": 572174.6167820349,
        "Argument of Periapsis(deg)": -0.009120573649269567,
        "Eccentricity": 0.0,
        "Inclination(deg)": 97.0,
        "Latitude(deg)": 53.420876787956004,
        "Longitude(deg)": -121.4565286575094,
        "Mean Anomaly(deg)": 126.11005254721597,
        "RAAN(deg)": 150.0023996883022,
        "Satellite Name": "Starlink Shell 3 1892",
        "Satellite Number": 1892,
        "Semi-Major Axis(m)": 6938478.169268562,
        "Time(s)": 230
    },
    {
        "Altitude(m)": 572035.7058120738,
        "Argument of Periapsis(deg)": -0.009517120329672592,
        "Eccentricity": 0.0,
        "Inclination(deg)": 97.0,
        "Latitude(deg)": 52.80876748934939,
        "Longitude(deg)": -121.7085075865444,
        "Mean Anomaly(deg)": 126.73552874492108,
        "RAAN(deg)": 150.0025040225762,
        "Satellite Name": "Starlink Shell 3 1892",
        "Satellite Number": 1892,
        "Semi-Major Axis(m)": 6938478.169268562,
        "Time(s)": 240
    },
    {
        "Altitude(m)": 571896.2755916929,
        "Argument of Periapsis(deg)": -0.009913667010075618,
        "Eccentricity": 0.0,
        "Inclination(deg)": 97.0,
        "Latitude(deg)": 52.19622468477377,
        "Longitude(deg)": -121.95466875480463,
        "Mean Anomaly(deg)": 127.36100494262612,
        "RAAN(deg)": 150.00260835685023,
        "Satellite Name": "Starlink Shell 3 1892",
        "Satellite Number": 1892,
        "Semi-Major Axis(m)": 6938478.169268562,
        "Time(s)": 250
    },
    {
        "Altitude(m)": 571756.409918823,
        "Argument of Periapsis(deg)": -0.010310213690478642,
        "Eccentricity": 0.0,
        "Inclination(deg)": 97.0,
        "Latitude(deg)": 51.583265483694554,
        "Longitude(deg)": -122.19529227754836,
        "Mean Anomaly(deg)": 127.98648114033111,
        "RAAN(deg)": 150.00271269112426,
        "Satellite Name": "Starlink Shell 3 1892",
        "Satellite Number": 1892,
        "Semi-Major Axis(m)": 6938478.169268562,
        "Time(s)": 260
    },
    {
        "Altitude(m)": 571616.1930755398,
        "Argument of Periapsis(deg)": -0.010706760370881667,
        "Eccentricity": 0.0,
        "Inclination(deg)": 97.0,
        "Latitude(deg)": 50.96990595389584,
        "Longitude(deg)": -122.43064076487872,
        "Mean Anomaly(deg)": 128.6119573380362,
        "RAAN(deg)": 150.00281702539826,
        "Satellite Name": "Starlink Shell 3 1892",
        "Satellite Number": 1892,
        "Semi-Major Axis(m)": 6938478.169268562,
        "Time(s)": 270
    },
    {
        "Altitude(m)": 571475.7097862073,
        "Argument of Periapsis(deg)": -0.011103307051284692,
        "Eccentricity": 0.0,
        "Inclination(deg)": 97.0,
        "Latitude(deg)": 50.3561612037406,
        "Longitude(deg)": -122.66096159848837,
        "Mean Anomaly(deg)": 129.2374335357412,
        "RAAN(deg)": 150.00292135967229,
        "Satellite Name": "Starlink Shell 3 1892",
        "Satellite Number": 1892,
        "Semi-Major Axis(m)": 6938478.169268562,
        "Time(s)": 280
    },
    {
        "Altitude(m)": 571335.0451753578,
        "Argument of Periapsis(deg)": -0.011499853731687715,
        "Eccentricity": 0.0,
        "Inclination(deg)": 97.0,
        "Latitude(deg)": 49.742045457125805,
        "Longitude(deg)": -122.88648758529112,
        "Mean Anomaly(deg)": 129.86290973344632,
        "RAAN(deg)": 150.00302569394628,
        "Satellite Name": "Starlink Shell 3 1892",
        "Satellite Number": 1892,
        "Semi-Major Axis(m)": 6938478.169268562,
        "Time(s)": 290
    },
    {
        "Altitude(m)": 571194.2847252595,
        "Argument of Periapsis(deg)": -0.011896400412090741,
        "Eccentricity": 0.0,
        "Inclination(deg)": 97.0,
        "Latitude(deg)": 49.12757212187506,
        "Longitude(deg)": -123.1074375116989,
        "Mean Anomaly(deg)": 130.48838593115138,
        "RAAN(deg)": 150.00313002822026,
        "Satellite Name": "Starlink Shell 3 1892",
        "Satellite Number": 1892,
        "Semi-Major Axis(m)": 6938478.169268562,
        "Time(s)": 300
    },
    {
        "Altitude(m)": 571053.5142332596,
        "Argument of Periapsis(deg)": -0.012292947092493765,
        "Eccentricity": 0.0,
        "Inclination(deg)": 97.0,
        "Latitude(deg)": 48.51275385222237,
        "Longitude(deg)": -123.32401812111027,
        "Mean Anomaly(deg)": 131.11386212885637,
        "RAAN(deg)": 150.00323436249428,
        "Satellite Name": "Starlink Shell 3 1892",
        "Satellite Number": 1892,
        "Semi-Major Axis(m)": 6938478.169268562,
        "Time(s)": 310
    },
    {
        "Altitude(m)": 570912.819768887,
        "Argument of Periapsis(deg)": -0.012689493772896788,
        "Eccentricity": 0.0,
        "Inclination(deg)": 97.0,
        "Latitude(deg)": 47.897602605965965,
        "Longitude(deg)": -123.53642449751153,
        "Mean Anomaly(deg)": 131.73933832656144,
        "RAAN(deg)": 150.0033386967683,
        "Satellite Name": "Starlink Shell 3 1892",
        "Satellite Number": 1892,
        "Semi-Major Axis(m)": 6938478.169268562,
        "Time(s)": 320
    },
    {
        "Altitude(m)": 570772.2876307208,
        "Argument of Periapsis(deg)": -0.013086040453299813,
        "Eccentricity": 0.0,
        "Inclination(deg)": 97.0,
        "Latitude(deg)": 47.28212969681177,
        "Longitude(deg)": -123.74484037577497,
        "Mean Anomaly(deg)": 132.36481452426648,
        "RAAN(deg)": 150.0034430310423,
        "Satellite Name": "Starlink Shell 3 1892",
        "Satellite Number": 1892,
        "Semi-Major Axis(m)": 6938478.169268562,
        "Time(s)": 330
    },
    {
        "Altitude(m)": 570632.0043030902,
        "Argument of Periapsis(deg)": -0.01348258713370284,
        "Eccentricity": 0.0,
        "Inclination(deg)": 97.0,
        "Latitude(deg)": 46.66634584236731,
        "Longitude(deg)": -123.94943989842291,
        "Mean Anomaly(deg)": 132.99029072197146,
        "RAAN(deg)": 150.0035473653163,
        "Satellite Name": "Starlink Shell 3 1892",
        "Satellite Number": 1892,
        "Semi-Major Axis(m)": 6938478.169268562,
        "Time(s)": 340
    },
    {
        "Altitude(m)": 570492.0564125874,
        "Argument of Periapsis(deg)": -0.013879133814105863,
        "Eccentricity": 0.0,
        "Inclination(deg)": 97.0,
        "Latitude(deg)": 46.05026120819512,
        "Longitude(deg)": -124.15038779928962,
        "Mean Anomaly(deg)": 133.61576691967656,
        "RAAN(deg)": 150.0036516995903,
        "Satellite Name": "Starlink Shell 3 1892",
        "Satellite Number": 1892,
        "Semi-Major Axis(m)": 6938478.169268562,
        "Time(s)": 350
    },
    {
        "Altitude(m)": 570352.5306844257,
        "Argument of Periapsis(deg)": -0.01427568049450889,
        "Eccentricity": 0.0,
        "Inclination(deg)": 97.0,
        "Latitude(deg)": 45.433885448295015,
        "Longitude(deg)": -124.34783953248596,
        "Mean Anomaly(deg)": 134.2412431173816,
        "RAAN(deg)": 150.00375603386433,
        "Satellite Name": "Starlink Shell 3 1892",
        "Satellite Number": 1892,
        "Semi-Major Axis(m)": 6938478.169268562,
        "Time(s)": 360
    },
    {
        "Altitude(m)": 570213.513898668,
        "Argument of Periapsis(deg)": -0.014672227174911913,
        "Eccentricity": 0.0,
        "Inclination(deg)": 97.0,
        "Latitude(deg)": 44.817227742344556,
        "Longitude(deg)": -124.54194286450424,
        "Mean Anomaly(deg)": 134.86671931508658,
        "RAAN(deg)": 150.00386036813833,
        "Satellite Name": "Starlink Shell 3 1892",
        "Satellite Number": 1892,
        "Semi-Major Axis(m)": 6938478.169268562,
        "Time(s)": 370
    }
]